[{"OBJECT_NAME":"STARLINK-5955","OBJECT_ID":"2023-058AB","EPOCH":"2026-03-09T22:06:53.158176","MEAN_MOTION":15.0564693,"ECCENTRICITY":0.00022003,"INCLINATION":97.6045,"RA_OF_ASC_NODE":71.4794,"ARG_OF_PERICENTER":86.3217,"MEAN_ANOMALY":273.8262,"EPHEMERIS_TYPE":0,"CLASSIFICATION_TYPE":"U","NORAD_CAT_ID":56342,"ELEMENT_SET_NO":999,"REV_AT_EPOCH":15823,"BSTAR":-8.4258803e-5,"MEAN_MOTION_DOT":-1.276e-5,"MEAN_MOTION_DDOT":0},{"OBJECT_NAME":"FENGYUN 1C DEB","OBJECT_ID":"1999-025AEH","EPOCH":"2026-03-09T22:48:21.206880","MEAN_MOTION":14.8573293,"ECCENTRICITY":0.01077809,"INCLINATION":98.8499,"RA_OF_ASC_NODE":243.2798,"ARG_OF_PERICENTER":197.684,"MEAN_ANOMALY":322.9923,"EPHEMERIS_TYPE":0,"CLASSIFICATION_TYPE":"U","NORAD_CAT_ID":30418,"ELEMENT_SET_NO":999,"REV_AT_EPOCH":1886,"BSTAR":0.0011748472,"MEAN_MOTION_DOT":0.00011272,"MEAN_MOTION_DDOT":0}]
